ONEWEB-0237             
1 48770U 21045D   26054.14370068  .00000112  00000+0  26236-3 0  9999
2 48770  87.8951 281.9814 0001385  97.2918 262.8370 13.15550250229392
ONEWEB-0235             
1 48771U 21045E   26054.11835018 -.00000312  00000+0 -86269-3 0  9994
2 48771  87.8963 281.9618 0001474 102.7340 257.3955 13.15548198229383
ONEWEB-0242             
1 48772U 21045F   26054.11201057 -.00000048  00000+0 -16260-3 0  9995
2 48772  87.8962 281.9588 0001372  89.2530 270.8758 13.15550420229423
ONEWEB-0241             
1 48773U 21045G   26054.09933908  .00000078  00000+0  17237-3 0  9996
2 48773  87.8955 281.9917 0001694  99.1892 260.9430 13.15547253229337
ONEWEB-0243             
1 48774U 21045H   26054.13102218 -.00000187  00000+0 -53178-3 0  9991
2 48774  87.8953 281.9966 0001272  96.9480 263.1795 13.15547635229366
ONEWEB-0222             
1 48775U 21045J   26054.11440173 -.00000080  00000+0 -24766-3 0  9998
2 48775  87.8966 281.9582 0001565  91.1441 268.9869 13.15547359229407
ONEWEB-0244             
1 48776U 21045K   26054.06447590  .00000057  00000+0  11781-3 0  9998
2 48776  87.8964 281.9584 0001440  92.5372 267.5924 13.15550556229969
ONEWEB-0247             
1 48777U 21045L   26054.13737119  .00000030  00000+0  46085-4 0  9993
2 48777  87.8956 281.9895 0001173 121.4801 238.6444 13.15546745229419
ONEWEB-0245             
1 48778U 21045M   26054.13260934 -.00000208  00000+0 -58576-3 0  9996
2 48778  87.8962 281.9603 0001697  91.6006 268.5319 13.15548573229380
ONEWEB-0229             
1 48779U 21045N   26054.12785563 -.00000215  00000+0 -60482-3 0  9993
2 48779  87.8962 281.9594 0001414  87.0997 273.0295 13.15547958229419
ONEWEB-0228             
1 48780U 21045P   26054.08521415  .00000269  00000+0  68065-3 0  9996
2 48780  87.8962 281.9550 0001484  88.7088 271.4212 13.15549703229320
ONEWEB-0232             
1 48781U 21045Q   26054.05972070  .00000081  00000+0  18150-3 0  9993
2 48781  87.8971 281.9576 0001531  84.9509 275.1796 13.15550177229648
ONEWEB-0231             
1 48782U 21045R   26054.11360021 -.00000035  00000+0 -12789-3 0  9991
2 48782  87.8952 281.9764 0001511  94.8678 265.2625 13.15550942229340
ONEWEB-0234             
1 48783U 21045S   26054.07544853  .00000211  00000+0  52522-3 0  9997
2 48783  87.8955 281.9620 0002386  84.4700 275.6703 13.15549297229474
ONEWEB-0238             
1 48784U 21045T   26054.07570767  .00000246  00000+0  61955-3 0  9999
2 48784  87.8956 281.9552 0001970  85.0426 275.0929 13.15549810229374
ONEWEB-0240             
1 48785U 21045U   26054.09697292  .00000084  00000+0  19031-3 0  9993
2 48785  87.8966 281.9514 0001691  96.8148 263.3175 13.15547707229405
