[{"OBJECT_NAME":"ONEWEB-0237","OBJECT_ID":"2021-045D","EPOCH":"2026-02-23T03:26:55.738752","MEAN_MOTION":13.1555025,"ECCENTRICITY":0.00013852,"INCLINATION":87.8951,"RA_OF_ASC_NODE":281.9814,"ARG_OF_PERICENTER":97.2918,"MEAN_ANOMALY":262.837,"EPHEMERIS_TYPE":0,"CLASSIFICATION_TYPE":"U","NORAD_CAT_ID":48770,"ELEMENT_SET_NO":999,"REV_AT_EPOCH":22939,"BSTAR":0.00026235801,"MEAN_MOTION_DOT":1.12e-6,"MEAN_MOTION_DDOT":0},{"OBJECT_NAME":"ONEWEB-0235","OBJECT_ID":"2021-045E","EPOCH":"2026-02-23T02:50:25.455552","MEAN_MOTION":13.15548198,"ECCENTRICITY":0.00014745,"INCLINATION":87.8963,"RA_OF_ASC_NODE":281.9618,"ARG_OF_PERICENTER":102.734,"MEAN_ANOMALY":257.3955,"EPHEMERIS_TYPE":0,"CLASSIFICATION_TYPE":"U","NORAD_CAT_ID":48771,"ELEMENT_SET_NO":999,"REV_AT_EPOCH":22938,"BSTAR":-0.00086269162,"MEAN_MOTION_DOT":-3.12e-6,"MEAN_MOTION_DDOT":0},{"OBJECT_NAME":"ONEWEB-0242","OBJECT_ID":"2021-045F","EPOCH":"2026-02-23T02:41:17.713248","MEAN_MOTION":13.1555042,"ECCENTRICITY":0.00013729,"INCLINATION":87.8962,"RA_OF_ASC_NODE":281.9588,"ARG_OF_PERICENTER":89.253,"MEAN_ANOMALY":270.8758,"EPHEMERIS_TYPE":0,"CLASSIFICATION_TYPE":"U","NORAD_CAT_ID":48772,"ELEMENT_SET_NO":999,"REV_AT_EPOCH":22942,"BSTAR":-0.00016260065,"MEAN_MOTION_DOT":-4.8e-7,"MEAN_MOTION_DDOT":0},{"OBJECT_NAME":"ONEWEB-0241","OBJECT_ID":"2021-045G","EPOCH":"2026-02-23T02:23:02.896512","MEAN_MOTION":13.15547253,"ECCENTRICITY":0.00016943,"INCLINATION":87.8955,"RA_OF_ASC_NODE":281.9917,"ARG_OF_PERICENTER":99.1892,"MEAN_ANOMALY":260.943,"EPHEMERIS_TYPE":0,"CLASSIFICATION_TYPE":"U","NORAD_CAT_ID":48773,"ELEMENT_SET_NO":999,"REV_AT_EPOCH":22933,"BSTAR":0.00017236586,"MEAN_MOTION_DOT":7.8e-7,"MEAN_MOTION_DDOT":0},{"OBJECT_NAME":"ONEWEB-0243","OBJECT_ID":"2021-045H","EPOCH":"2026-02-23T03:08:40.316352","MEAN_MOTION":13.15547635,"ECCENTRICITY":0.00012722,"INCLINATION":87.8953,"RA_OF_ASC_NODE":281.9966,"ARG_OF_PERICENTER":96.948,"MEAN_ANOMALY":263.1795,"EPHEMERIS_TYPE":0,"CLASSIFICATION_TYPE":"U","NORAD_CAT_ID":48774,"ELEMENT_SET_NO":999,"REV_AT_EPOCH":22936,"BSTAR":-0.00053178184,"MEAN_MOTION_DOT":-1.87e-6,"MEAN_MOTION_DDOT":0},{"OBJECT_NAME":"ONEWEB-0222","OBJECT_ID":"2021-045J","EPOCH":"2026-02-23T02:44:44.309472","MEAN_MOTION":13.15547359,"ECCENTRICITY":0.00015657,"INCLINATION":87.8966,"RA_OF_ASC_NODE":281.9582,"ARG_OF_PERICENTER":91.1441,"MEAN_ANOMALY":268.9869,"EPHEMERIS_TYPE":0,"CLASSIFICATION_TYPE":"U","NORAD_CAT_ID":48775,"ELEMENT_SET_NO":999,"REV_AT_EPOCH":22940,"BSTAR":-0.00024766395,"MEAN_MOTION_DOT":-8.0e-7,"MEAN_MOTION_DDOT":0},{"OBJECT_NAME":"ONEWEB-0244","OBJECT_ID":"2021-045K","EPOCH":"2026-02-23T01:32:50.717760","MEAN_MOTION":13.15550556,"ECCENTRICITY":0.00014402,"INCLINATION":87.8964,"RA_OF_ASC_NODE":281.9584,"ARG_OF_PERICENTER":92.5372,"MEAN_ANOMALY":267.5924,"EPHEMERIS_TYPE":0,"CLASSIFICATION_TYPE":"U","NORAD_CAT_ID":48776,"ELEMENT_SET_NO":999,"REV_AT_EPOCH":22996,"BSTAR":0.00011780799,"MEAN_MOTION_DOT":5.7e-7,"MEAN_MOTION_DDOT":0},{"OBJECT_NAME":"ONEWEB-0247","OBJECT_ID":"2021-045L","EPOCH":"2026-02-23T03:17:48.870816","MEAN_MOTION":13.15546745,"ECCENTRICITY":0.00011731,"INCLINATION":87.8956,"RA_OF_ASC_NODE":281.9895,"ARG_OF_PERICENTER":121.4801,"MEAN_ANOMALY":238.6444,"EPHEMERIS_TYPE":0,"CLASSIFICATION_TYPE":"U","NORAD_CAT_ID":48777,"ELEMENT_SET_NO":999,"REV_AT_EPOCH":22941,"BSTAR":4.6084672e-5,"MEAN_MOTION_DOT":3.0e-7,"MEAN_MOTION_DDOT":0},{"OBJECT_NAME":"ONEWEB-0245","OBJECT_ID":"2021-045M","EPOCH":"2026-02-23T03:10:57.446976","MEAN_MOTION":13.15548573,"ECCENTRICITY":0.00016972,"INCLINATION":87.8962,"RA_OF_ASC_NODE":281.9603,"ARG_OF_PERICENTER":91.6006,"MEAN_ANOMALY":268.5319,"EPHEMERIS_TYPE":0,"CLASSIFICATION_TYPE":"U","NORAD_CAT_ID":48778,"ELEMENT_SET_NO":999,"REV_AT_EPOCH":22938,"BSTAR":-0.0005857565,"MEAN_MOTION_DOT":-2.08e-6,"MEAN_MOTION_DDOT":0},{"OBJECT_NAME":"ONEWEB-0229","OBJECT_ID":"2021-045N","EPOCH":"2026-02-23T03:04:06.726432","MEAN_MOTION":13.15547958,"ECCENTRICITY":0.00014144,"INCLINATION":87.8962,"RA_OF_ASC_NODE":281.9594,"ARG_OF_PERICENTER":87.0997,"MEAN_ANOMALY":273.0295,"EPHEMERIS_TYPE":0,"CLASSIFICATION_TYPE":"U","NORAD_CAT_ID":48779,"ELEMENT_SET_NO":999,"REV_AT_EPOCH":22941,"BSTAR":-0.00060481558,"MEAN_MOTION_DOT":-2.15e-6,"MEAN_MOTION_DDOT":0},{"OBJECT_NAME":"ONEWEB-0228","OBJECT_ID":"2021-045P","EPOCH":"2026-02-23T02:02:42.502560","MEAN_MOTION":13.15549703,"ECCENTRICITY":0.00014845,"INCLINATION":87.8962,"RA_OF_ASC_NODE":281.955,"ARG_OF_PERICENTER":88.7088,"MEAN_ANOMALY":271.4212,"EPHEMERIS_TYPE":0,"CLASSIFICATION_TYPE":"U","NORAD_CAT_ID":48780,"ELEMENT_SET_NO":999,"REV_AT_EPOCH":22932,"BSTAR":0.00068065206,"MEAN_MOTION_DOT":2.69e-6,"MEAN_MOTION_DDOT":0},{"OBJECT_NAME":"ONEWEB-0232","OBJECT_ID":"2021-045Q","EPOCH":"2026-02-23T01:25:59.868480","MEAN_MOTION":13.15550177,"ECCENTRICITY":0.00015315,"INCLINATION":87.8971,"RA_OF_ASC_NODE":281.9576,"ARG_OF_PERICENTER":84.9509,"MEAN_ANOMALY":275.1796,"EPHEMERIS_TYPE":0,"CLASSIFICATION_TYPE":"U","NORAD_CAT_ID":48781,"ELEMENT_SET_NO":999,"REV_AT_EPOCH":22964,"BSTAR":0.0001815003,"MEAN_MOTION_DOT":8.1e-7,"MEAN_MOTION_DDOT":0},{"OBJECT_NAME":"ONEWEB-0231","OBJECT_ID":"2021-045R","EPOCH":"2026-02-23T02:43:35.058144","MEAN_MOTION":13.15550942,"ECCENTRICITY":0.0001511,"INCLINATION":87.8952,"RA_OF_ASC_NODE":281.9764,"ARG_OF_PERICENTER":94.8678,"MEAN_ANOMALY":265.2625,"EPHEMERIS_TYPE":0,"CLASSIFICATION_TYPE":"U","NORAD_CAT_ID":48782,"ELEMENT_SET_NO":999,"REV_AT_EPOCH":22934,"BSTAR":-0.00012789041,"MEAN_MOTION_DOT":-3.5e-7,"MEAN_MOTION_DDOT":0},{"OBJECT_NAME":"ONEWEB-0234","OBJECT_ID":"2021-045S","EPOCH":"2026-02-23T01:48:38.752992","MEAN_MOTION":13.15549297,"ECCENTRICITY":0.00023863,"INCLINATION":87.8955,"RA_OF_ASC_NODE":281.962,"ARG_OF_PERICENTER":84.47,"MEAN_ANOMALY":275.6703,"EPHEMERIS_TYPE":0,"CLASSIFICATION_TYPE":"U","NORAD_CAT_ID":48783,"ELEMENT_SET_NO":999,"REV_AT_EPOCH":22947,"BSTAR":0.00052522443,"MEAN_MOTION_DOT":2.11e-6,"MEAN_MOTION_DDOT":0},{"OBJECT_NAME":"ONEWEB-0238","OBJECT_ID":"2021-045T","EPOCH":"2026-02-23T01:49:01.142688","MEAN_MOTION":13.1554981,"ECCENTRICITY":0.000197,"INCLINATION":87.8956,"RA_OF_ASC_NODE":281.9552,"ARG_OF_PERICENTER":85.0426,"MEAN_ANOMALY":275.0929,"EPHEMERIS_TYPE":0,"CLASSIFICATION_TYPE":"U","NORAD_CAT_ID":48784,"ELEMENT_SET_NO":999,"REV_AT_EPOCH":22937,"BSTAR":0.00061954779,"MEAN_MOTION_DOT":2.46e-6,"MEAN_MOTION_DDOT":0},{"OBJECT_NAME":"ONEWEB-0240","OBJECT_ID":"2021-045U","EPOCH":"2026-02-23T02:19:38.460288","MEAN_MOTION":13.15547707,"ECCENTRICITY":0.00016915,"INCLINATION":87.8966,"RA_OF_ASC_NODE":281.9514,"ARG_OF_PERICENTER":96.8148,"MEAN_ANOMALY":263.3175,"EPHEMERIS_TYPE":0,"CLASSIFICATION_TYPE":"U","NORAD_CAT_ID":48785,"ELEMENT_SET_NO":999,"REV_AT_EPOCH":22940,"BSTAR":0.00019030534,"MEAN_MOTION_DOT":8.4e-7,"MEAN_MOTION_DDOT":0}]
